0 FENGYUN 1C DEB
1 30972U 99025BBN 13283.20868199  .00004293  00000-0  23316-2 0  1656
2 30972 098.9611 266.7876 0031038 083.2425 045.7287 14.12603258340347
0 FENGYUN 1C DEB
1 30972U 99025BBN 13286.66493069  .00003860  00000-0  20981-2 0  1675
2 30972 098.9607 270.2450 0031204 073.8235 341.8546 14.12628478340832
0 FENGYUN 1C DEB
1 30972U 99025BBN 13288.45445271  .00005481  00000-0  29672-2 0  1684
2 30972 098.9603 272.0351 0031233 069.0729 082.1475 14.12644990341086
0 FENGYUN 1C DEB
1 30972U 99025BBN 13289.71023160  .00005903  00000-0  31933-2 0  1696
2 30972 098.9604 273.2912 0031228 065.7404 348.2568 14.12654497341251
0 FENGYUN 1C DEB
1 30972U 99025BBN 13291.62275389  .00005248  00000-0  28406-2 0  1706
2 30972 098.9611 275.2041 0031262 060.6215 354.2826 14.12672643341523
0 FENGYUN 1C DEB
1 30972U 99025BBN 13292.89820660  .00004718  00000-0  25561-2 0  1715
2 30972 098.9619 276.4797 0031293 057.1669 000.6355 14.12685123341706
0 FENGYUN 1C DEB
1 30972U 99025BBN 13294.18843207  .00005417  00000-0  29298-2 0  1720
2 30972 098.9623 277.7705 0031403 053.8067 082.0421 14.12696772341892
0 FENGYUN 1C DEB
1 30972U 99025BBN 13295.46892591  .00005773  00000-0  31199-2 0  1731
2 30972 098.9626 279.0516 0031465 050.4653 114.0167 14.12709428342079
